[{"OBJECT_NAME":"ION SCV-017","OBJECT_ID":"2025-052W","EPOCH":"2026-03-09T17:11:44.577024","MEAN_MOTION":15.26881798,"ECCENTRICITY":0.0023746,"INCLINATION":97.4016,"RA_OF_ASC_NODE":324.7516,"ARG_OF_PERICENTER":44.9875,"MEAN_ANOMALY":315.3282,"EPHEMERIS_TYPE":0,"CLASSIFICATION_TYPE":"U","NORAD_CAT_ID":63230,"ELEMENT_SET_NO":999,"REV_AT_EPOCH":5485,"BSTAR":0.00024539061,"MEAN_MOTION_DOT":6.457e-5,"MEAN_MOTION_DDOT":0},{"OBJECT_NAME":"STARLINK-33939","OBJECT_ID":"2025-087F","EPOCH":"2026-03-09T17:25:24.179520","MEAN_MOTION":15.30201362,"ECCENTRICITY":0.00010357,"INCLINATION":53.1584,"RA_OF_ASC_NODE":219.4976,"ARG_OF_PERICENTER":85.5171,"MEAN_ANOMALY":274.5948,"EPHEMERIS_TYPE":0,"CLASSIFICATION_TYPE":"U","NORAD_CAT_ID":63702,"ELEMENT_SET_NO":999,"REV_AT_EPOCH":4920,"BSTAR":0.0012188112,"MEAN_MOTION_DOT":0.00035915,"MEAN_MOTION_DDOT":0}]
