ION SCV-017             
1 63230U 25052W   26068.71648816  .00006457  00000+0  24539-3 0  9998
2 63230  97.4016 324.7516 0023746  44.9875 315.3282 15.26881798 54851
STARLINK-33939          
1 63702U 25087F   26068.72597429  .00035915  00000+0  12188-2 0  9991
2 63702  53.1584 219.4976 0001036  85.5171 274.5948 15.30201362 49208
